{"type": "FeatureCollection", "features": [{"type": "Feature", "properties": {"norad_id": 25590, "name": "COSMOS 2361", "group": "musson", "lat": 44.142559531449244, "lon": 152.94758453552976, "alt_km": 993.1649952851703, "timestamp": "2025-12-18T10:51:26.076240+00:00", "meta": {"OBJECT_NAME": "COSMOS 2361", "OBJECT_ID": "1998-076A", "EPOCH": "2025-12-17T17:33:09.745056", "MEAN_MOTION": 13.73218124, "ECCENTRICITY": 0.00301073, "INCLINATION": 82.934, "RA_OF_ASC_NODE": 340.3942, "ARG_OF_PERICENTER": 251.1312, "MEAN_ANOMALY": 282.1077, "EPHEMERIS_TYPE": 0, "CLASSIFICATION_TYPE": "U", "NORAD_CAT_ID": 25590, "ELEMENT_SET_NO": 999, "REV_AT_EPOCH": 35179, "BSTAR": 6.0639335e-05, "MEAN_MOTION_DOT": 7.1e-07, "MEAN_MOTION_DDOT": 0}, "tle": {"line1": "1 25590U 98076A   25351.73136279  .00000071  00000+0  60639-4 0  9990", "line2": "2 25590  82.9340 340.3942 0030107 251.1312 282.1077 13.73218124351794"}}, "geometry": {"type": "Point", "coordinates": [152.94758453552976, 44.142559531449244]}}, {"type": "Feature", "properties": {"norad_id": 26818, "name": "COSMOS 2378", "group": "musson", "lat": -47.12828708469882, "lon": -176.82543897767908, "alt_km": 972.6896917080921, "timestamp": "2025-12-18T10:51:26.076262+00:00", "meta": {"OBJECT_NAME": "COSMOS 2378", "OBJECT_ID": "2001-023A", "EPOCH": "2025-12-17T13:22:03.961056", "MEAN_MOTION": 13.74142424, "ECCENTRICITY": 0.00327007, "INCLINATION": 82.9271, "RA_OF_ASC_NODE": 356.1527, "ARG_OF_PERICENTER": 191.3164, "MEAN_ANOMALY": 289.0235, "EPHEMERIS_TYPE": 0, "CLASSIFICATION_TYPE": "U", "NORAD_CAT_ID": 26818, "ELEMENT_SET_NO": 999, "REV_AT_EPOCH": 22989, "BSTAR": 4.9368059e-05, "MEAN_MOTION_DOT": 6.2e-07, "MEAN_MOTION_DDOT": 0}, "tle": {"line1": "1 26818U 01023A   25351.55699029  .00000062  00000+0  49368-4 0  9993", "line2": "2 26818  82.9271 356.1527 0032700 191.3164 289.0235 13.74142424229893"}}, "geometry": {"type": "Point", "coordinates": [-176.82543897767908, -47.12828708469882]}}, {"type": "Feature", "properties": {"norad_id": 27436, "name": "COSMOS 2389", "group": "musson", "lat": 81.10990784662803, "lon": 70.47188443948158, "alt_km": 951.2709205903775, "timestamp": "2025-12-18T10:51:26.076282+00:00", "meta": {"OBJECT_NAME": "COSMOS 2389", "OBJECT_ID": "2002-026A", "EPOCH": "2025-12-17T16:01:43.938624", "MEAN_MOTION": 13.75155201, "ECCENTRICITY": 0.00474751, "INCLINATION": 82.9506, "RA_OF_ASC_NODE": 303.3364, "ARG_OF_PERICENTER": 47.3519, "MEAN_ANOMALY": 126.0454, "EPHEMERIS_TYPE": 0, "CLASSIFICATION_TYPE": "U", "NORAD_CAT_ID": 27436, "ELEMENT_SET_NO": 999, "REV_AT_EPOCH": 18216, "BSTAR": 3.7759431e-05, "MEAN_MOTION_DOT": 5.2e-07, "MEAN_MOTION_DDOT": 0}, "tle": {"line1": "1 27436U 02026A   25351.66786966  .00000052  00000+0  37759-4 0  9993", "line2": "2 27436  82.9506 303.3364 0047475  47.3519 126.0454 13.75155201182162"}}, "geometry": {"type": "Point", "coordinates": [70.47188443948158, 81.10990784662803]}}, {"type": "Feature", "properties": {"norad_id": 27818, "name": "COSMOS 2398", "group": "musson", "lat": -9.604101674818397, "lon": -92.71127784992449, "alt_km": 1001.6621044953599, "timestamp": "2025-12-18T10:51:26.076294+00:00", "meta": {"OBJECT_NAME": "COSMOS 2398", "OBJECT_ID": "2003-023A", "EPOCH": "2025-12-17T21:14:52.360800", "MEAN_MOTION": 13.72386173, "ECCENTRICITY": 0.00327318, "INCLINATION": 82.9484, "RA_OF_ASC_NODE": 268.9066, "ARG_OF_PERICENTER": 98.0305, "MEAN_ANOMALY": 332.7473, "EPHEMERIS_TYPE": 0, "CLASSIFICATION_TYPE": "U", "NORAD_CAT_ID": 27818, "ELEMENT_SET_NO": 999, "REV_AT_EPOCH": 12887, "BSTAR": 3.1531562e-05, "MEAN_MOTION_DOT": 4.4e-07, "MEAN_MOTION_DDOT": 0}, "tle": {"line1": "1 27818U 03023A   25351.88532825  .00000044  00000+0  31532-4 0  9996", "line2": "2 27818  82.9484 268.9066 0032731  98.0305 332.7473 13.72386173128877"}}, "geometry": {"type": "Point", "coordinates": [-92.71127784992449, -9.604101674818397]}}, {"type": "Feature", "properties": {"norad_id": 28380, "name": "COSMOS 2407", "group": "musson", "lat": -82.2925316862609, "lon": 94.5898760114261, "alt_km": 1004.2103019499273, "timestamp": "2025-12-18T10:51:26.076306+00:00", "meta": {"OBJECT_NAME": "COSMOS 2407", "OBJECT_ID": "2004-028A", "EPOCH": "2025-12-17T21:24:15.009696", "MEAN_MOTION": 13.76314282, "ECCENTRICITY": 0.00401196, "INCLINATION": 82.9601, "RA_OF_ASC_NODE": 209.0782, "ARG_OF_PERICENTER": 40.8294, "MEAN_ANOMALY": 330.587, "EPHEMERIS_TYPE": 0, "CLASSIFICATION_TYPE": "U", "NORAD_CAT_ID": 28380, "ELEMENT_SET_NO": 999, "REV_AT_EPOCH": 7494, "BSTAR": 7.1193305e-05, "MEAN_MOTION_DOT": 8.5e-07, "MEAN_MOTION_DDOT": 0}, "tle": {"line1": "1 28380U 04028A   25351.89184039  .00000085  00000+0  71193-4 0  9990", "line2": "2 28380  82.9601 209.0782 0040119  40.8294 330.5870 13.76314282 74946"}}, "geometry": {"type": "Point", "coordinates": [94.5898760114261, -82.2925316862609]}}, {"type": "Feature", "properties": {"norad_id": 28521, "name": "COSMOS 2414", "group": "musson", "lat": 47.665798784878284, "lon": -171.8518400300959, "alt_km": 924.0741975285027, "timestamp": "2025-12-18T10:51:26.076317+00:00", "meta": {"OBJECT_NAME": "COSMOS 2414", "OBJECT_ID": "2005-002A", "EPOCH": "2025-12-17T20:47:02.394816", "MEAN_MOTION": 13.87903668, "ECCENTRICITY": 0.00411624, "INCLINATION": 82.9488, "RA_OF_ASC_NODE": 180.7835, "ARG_OF_PERICENTER": 125.3878, "MEAN_ANOMALY": 235.1142, "EPHEMERIS_TYPE": 0, "CLASSIFICATION_TYPE": "U", "NORAD_CAT_ID": 28521, "ELEMENT_SET_NO": 999, "REV_AT_EPOCH": 5866, "BSTAR": 6.1067974e-05, "MEAN_MOTION_DOT": 8.9e-07, "MEAN_MOTION_DDOT": 0}, "tle": {"line1": "1 28521U 05002A   25351.86599994  .00000089  00000+0  61068-4 0  9991", "line2": "2 28521  82.9488 180.7835 0041162 125.3878 235.1142 13.87903668 58663"}}, "geometry": {"type": "Point", "coordinates": [-171.8518400300959, 47.665798784878284]}}, {"type": "Feature", "properties": {"norad_id": 32052, "name": "COSMOS 2429", "group": "musson", "lat": -77.57730148174169, "lon": -54.911478648503945, "alt_km": 994.3046637811267, "timestamp": "2025-12-18T10:51:26.076328+00:00", "meta": {"OBJECT_NAME": "COSMOS 2429", "OBJECT_ID": "2007-038A", "EPOCH": "2025-12-17T16:02:04.029216", "MEAN_MOTION": 13.75149894, "ECCENTRICITY": 0.00389773, "INCLINATION": 82.9804, "RA_OF_ASC_NODE": 339.6753, "ARG_OF_PERICENTER": 24.3748, "MEAN_ANOMALY": 335.924, "EPHEMERIS_TYPE": 0, "CLASSIFICATION_TYPE": "U", "NORAD_CAT_ID": 32052, "ELEMENT_SET_NO": 999, "REV_AT_EPOCH": 91670, "BSTAR": 5.3411033e-05, "MEAN_MOTION_DOT": 6.7e-07, "MEAN_MOTION_DDOT": 0}, "tle": {"line1": "1 32052U 07038A   25351.66810219  .00000067  00000+0  53411-4 0  9999", "line2": "2 32052  82.9804 339.6753 0038977  24.3748 335.9240 13.75149894916703"}}, "geometry": {"type": "Point", "coordinates": [-54.911478648503945, -77.57730148174169]}}, {"type": "Feature", "properties": {"norad_id": 35635, "name": "COSMOS 2454", "group": "musson", "lat": 38.85248974256815, "lon": -21.402293331430634, "alt_km": 923.9271964721302, "timestamp": "2025-12-18T10:51:26.076339+00:00", "meta": {"OBJECT_NAME": "COSMOS 2454", "OBJECT_ID": "2009-039A", "EPOCH": "2025-12-17T18:41:38.948928", "MEAN_MOTION": 13.8992925, "ECCENTRICITY": 0.00203284, "INCLINATION": 82.9553, "RA_OF_ASC_NODE": 164.8248, "ARG_OF_PERICENTER": 60.2397, "MEAN_ANOMALY": 312.3344, "EPHEMERIS_TYPE": 0, "CLASSIFICATION_TYPE": "U", "NORAD_CAT_ID": 35635, "ELEMENT_SET_NO": 999, "REV_AT_EPOCH": 83220, "BSTAR": 5.0708597e-05, "MEAN_MOTION_DOT": 7.8e-07, "MEAN_MOTION_DDOT": 0}, "tle": {"line1": "1 35635U 09039A   25351.77892302  .00000078  00000+0  50709-4 0  9996", "line2": "2 35635  82.9553 164.8248 0020328  60.2397 312.3344 13.89929250832204"}}, "geometry": {"type": "Point", "coordinates": [-21.402293331430634, 38.85248974256815]}}, {"type": "Feature", "properties": {"norad_id": 36519, "name": "COSMOS 2463", "group": "musson", "lat": 14.873605619256683, "lon": -159.36580031150154, "alt_km": 1001.7420794308855, "timestamp": "2025-12-18T10:51:26.076350+00:00", "meta": {"OBJECT_NAME": "COSMOS 2463", "OBJECT_ID": "2010-017A", "EPOCH": "2025-12-17T20:53:33.803232", "MEAN_MOTION": 13.71649617, "ECCENTRICITY": 0.003474, "INCLINATION": 82.9607, "RA_OF_ASC_NODE": 22.9421, "ARG_OF_PERICENTER": 273.2868, "MEAN_ANOMALY": 260.4471, "EPHEMERIS_TYPE": 0, "CLASSIFICATION_TYPE": "U", "NORAD_CAT_ID": 36519, "ELEMENT_SET_NO": 999, "REV_AT_EPOCH": 78307, "BSTAR": 6.4142203e-05, "MEAN_MOTION_DOT": 7.3e-07, "MEAN_MOTION_DDOT": 0}, "tle": {"line1": "1 36519U 10017A   25351.87053013  .00000073  00000+0  64142-4 0  9996", "line2": "2 36519  82.9607  22.9421 0034740 273.2868 260.4471 13.71649617783076"}}, "geometry": {"type": "Point", "coordinates": [-159.36580031150154, 14.873605619256683]}}]}